{
  "type": "FeatureCollection",
  "features": [
    {
      "type": "Feature",
      "properties": {
        "norad_id": 41772,
        "name": "SKYSAT-C5",
        "group": "resource",
        "lat": -17.171599728426873,
        "lon": 30.818327783322697,
        "alt_km": 466.5478434019533,
        "timestamp": "2025-12-10T18:56:59.719324+00:00",
        "meta_object_name": "SKYSAT-C5",
        "meta_object_id": "2016-058C",
        "meta_epoch": "2025-12-10T09:38:23.191584",
        "meta_mean_motion": 15.35296249,
        "meta_eccentricity": 0.0002399,
        "meta_inclination": 97.076,
        "meta_ra_of_asc_node": 28.246,
        "meta_arg_of_pericenter": 139.5793,
        "meta_mean_anomaly": 220.5629,
        "meta_ephemeris_type": 0,
        "meta_classification_type": "U",
        "meta_norad_cat_id": 41772,
        "meta_element_set_no": 999,
        "meta_rev_at_epoch": 51480,
        "meta_bstar": 0.00044653,
        "meta_mean_motion_dot": 0.00015242,
        "meta_mean_motion_ddot": 0,
        "tle_line1": "1 41772U 16058C   25344.40165731  .00015242  00000+0  44653-3 0  9994",
        "tle_line2": "2 41772  97.0760  28.2460 0002399 139.5793 220.5629 15.35296249514804"
      },
      "geometry": {
        "type": "Point",
        "coordinates": [
          30.818327783322697,
          -17.171599728426873
        ]
      }
    },
    {
      "type": "Feature",
      "properties": {
        "norad_id": 41773,
        "name": "SKYSAT-C2",
        "group": "resource",
        "lat": -21.358962806834736,
        "lon": 12.167423068400314,
        "alt_km": 458.3095469192067,
        "timestamp": "2025-12-10T18:56:59.719334+00:00",
        "meta_object_name": "SKYSAT-C2",
        "meta_object_id": "2016-058D",
        "meta_epoch": "2025-12-10T08:06:25.640064",
        "meta_mean_motion": 15.37180734,
        "meta_eccentricity": 0.0004477,
        "meta_inclination": 97.0364,
        "meta_ra_of_asc_node": 8.9661,
        "meta_arg_of_pericenter": 40.507,
        "meta_mean_anomaly": 319.6508,
        "meta_ephemeris_type": 0,
        "meta_classification_type": "U",
        "meta_norad_cat_id": 41773,
        "meta_element_set_no": 999,
        "meta_rev_at_epoch": 51599,
        "meta_bstar": 0.0004509,
        "meta_mean_motion_dot": 0.00016358,
        "meta_mean_motion_ddot": 0,
        "tle_line1": "1 41773U 16058D   25344.33779676  .00016358  00000+0  45090-3 0  9991",
        "tle_line2": "2 41773  97.0364   8.9661 0004477  40.5070 319.6508 15.37180734515991"
      },
      "geometry": {
        "type": "Point",
        "coordinates": [
          12.167423068400314,
          -21.358962806834736
        ]
      }
    },
    {
      "type": "Feature",
      "properties": {
        "norad_id": 41774,
        "name": "SKYSAT-C3",
        "group": "resource",
        "lat": 61.70242905033005,
        "lon": -148.31683243646577,
        "alt_km": 426.4810078268729,
        "timestamp": "2025-12-10T18:56:59.719345+00:00",
        "meta_object_name": "SKYSAT-C3",
        "meta_object_id": "2016-058E",
        "meta_epoch": "2025-12-10T01:20:10.885056",
        "meta_mean_motion": 15.44244525,
        "meta_eccentricity": 0.00015989,
        "meta_inclination": 96.93,
        "meta_ra_of_asc_node": 17.9267,
        "meta_arg_of_pericenter": 105.6106,
        "meta_mean_anomaly": 254.5321,
        "meta_ephemeris_type": 0,
        "meta_classification_type": "U",
        "meta_norad_cat_id": 41774,
        "meta_element_set_no": 999,
        "meta_rev_at_epoch": 51684,
        "meta_bstar": 0.00053806643,
        "meta_mean_motion_dot": 0.0002469,
        "meta_mean_motion_ddot": 0,
        "tle_line1": "1 41774U 16058E   25344.05568154  .00024690  00000+0  53807-3 0  9991",
        "tle_line2": "2 41774  96.9300  17.9267 0001598 105.6106 254.5321 15.44244525516848"
      },
      "geometry": {
        "type": "Point",
        "coordinates": [
          -148.31683243646577,
          61.70242905033005
        ]
      }
    },
    {
      "type": "Feature",
      "properties": {
        "norad_id": 41785,
        "name": "ALSAT 1B",
        "group": "resource",
        "lat": 56.68388969139,
        "lon": -171.32933167087762,
        "alt_km": 641.7719228403275,
        "timestamp": "2025-12-10T18:56:59.719355+00:00",
        "meta_object_name": "ALSAT 1B",
        "meta_object_id": "2016-059C",
        "meta_epoch": "2025-12-10T11:52:15.331296",
        "meta_mean_motion": 14.72072332,
        "meta_eccentricity": 0.0010641,
        "meta_inclination": 97.7813,
        "meta_ra_of_asc_node": 356.3808,
        "meta_arg_of_pericenter": 109.4742,
        "meta_mean_anomaly": 250.7617,
        "meta_ephemeris_type": 0,
        "meta_classification_type": "U",
        "meta_norad_cat_id": 41785,
        "meta_element_set_no": 999,
        "meta_rev_at_epoch": 49281,
        "meta_bstar": 0.00014323,
        "meta_mean_motion_dot": 8.54e-06,
        "meta_mean_motion_ddot": 0,
        "tle_line1": "1 41785U 16059C   25344.49462189  .00000854  00000+0  14323-3 0  9999",
        "tle_line2": "2 41785  97.7813 356.3808 0010641 109.4742 250.7617 14.72072332492817"
      },
      "geometry": {
        "type": "Point",
        "coordinates": [
          -171.32933167087762,
          56.68388969139
        ]
      }
    },
    {
      "type": "Feature",
      "properties": {
        "norad_id": 41787,
        "name": "PATHFINDER 1",
        "group": "resource",
        "lat": -53.84147308920751,
        "lon": 156.8227609376733,
        "alt_km": 694.5123795357486,
        "timestamp": "2025-12-10T18:56:59.719365+00:00",
        "meta_object_name": "PATHFINDER 1",
        "meta_object_id": "2016-059E",
        "meta_epoch": "2025-12-10T11:20:24.890784",
        "meta_mean_motion": 14.67314596,
        "meta_eccentricity": 0.0030057,
        "meta_inclination": 97.8139,
        "meta_ra_of_asc_node": 347.3513,
        "meta_arg_of_pericenter": 88.0496,
        "meta_mean_anomaly": 272.4151,
        "meta_ephemeris_type": 0,
        "meta_classification_type": "U",
        "meta_norad_cat_id": 41787,
        "meta_element_set_no": 999,
        "meta_rev_at_epoch": 49203,
        "meta_bstar": 0.00023092,
        "meta_mean_motion_dot": 1.265e-05,
        "meta_mean_motion_ddot": 0,
        "tle_line1": "1 41787U 16059E   25344.47251031  .00001265  00000+0  23092-3 0  9991",
        "tle_line2": "2 41787  97.8139 347.3513 0030057  88.0496 272.4151 14.67314596492038"
      },
      "geometry": {
        "type": "Point",
        "coordinates": [
          156.8227609376733,
          -53.84147308920751
        ]
      }
    },
    {
      "type": "Feature",
      "properties": {
        "norad_id": 41790,
        "name": "SCATSAT 1",
        "group": "resource",
        "lat": 33.94951186031038,
        "lon": -133.03069646703685,
        "alt_km": 591.9783984692876,
        "timestamp": "2025-12-10T18:56:59.719376+00:00",
        "meta_object_name": "SCATSAT 1",
        "meta_object_id": "2016-059H",
        "meta_epoch": "2025-12-10T03:40:56.846208",
        "meta_mean_motion": 14.78922317,
        "meta_eccentricity": 0.00561475,
        "meta_inclination": 98.1464,
        "meta_ra_of_asc_node": 40.7913,
        "meta_arg_of_pericenter": 136.1603,
        "meta_mean_anomaly": 224.4085,
        "meta_ephemeris_type": 0,
        "meta_classification_type": "U",
        "meta_norad_cat_id": 41790,
        "meta_element_set_no": 999,
        "meta_rev_at_epoch": 7364,
        "meta_bstar": 0.00031975556,
        "meta_mean_motion_dot": 2.364e-05,
        "meta_mean_motion_ddot": 0,
        "tle_line1": "1 41790U 16059H   25344.15343572  .00002364  00000+0  31976-3 0  9993",
        "tle_line2": "2 41790  98.1464  40.7913 0056147 136.1603 224.4085 14.78922317 73641"
      },
      "geometry": {
        "type": "Point",
        "coordinates": [
          -133.03069646703685,
          33.94951186031038
        ]
      }
    },
    {
      "type": "Feature",
      "properties": {
        "norad_id": 41875,
        "name": "GOKTURK 1A",
        "group": "resource",
        "lat": -16.676890164998525,
        "lon": -120.36136203734469,
        "alt_km": 689.1873644658308,
        "timestamp": "2025-12-10T18:56:59.719385+00:00",
        "meta_object_name": "GOKTURK 1A",
        "meta_object_id": "2016-073A",
        "meta_epoch": "2025-12-10T12:27:35.991648",
        "meta_mean_motion": 14.6277476,
        "meta_eccentricity": 0.0001252,
        "meta_inclination": 98.1425,
        "meta_ra_of_asc_node": 236.9137,
        "meta_arg_of_pericenter": 79.1959,
        "meta_mean_anomaly": 280.9383,
        "meta_ephemeris_type": 0,
        "meta_classification_type": "U",
        "meta_norad_cat_id": 41875,
        "meta_element_set_no": 999,
        "meta_rev_at_epoch": 48124,
        "meta_bstar": 0.00013257,
        "meta_mean_motion_dot": 6.29e-06,
        "meta_mean_motion_ddot": 0,
        "tle_line1": "1 41875U 16073A   25344.51916657  .00000629  00000+0  13257-3 0  9997",
        "tle_line2": "2 41875  98.1425 236.9137 0001252  79.1959 280.9383 14.62774760481243"
      },
      "geometry": {
        "type": "Point",
        "coordinates": [
          -120.36136203734469,
          -16.676890164998525
        ]
      }
    }
  ]
}